{
  "type": "FeatureCollection",
  "features": [
    {
      "type": "Feature",
      "properties": {
        "norad_id": 33886,
        "name": "IRIDIUM 33 DEB",
        "group": "iridium-33-debris",
        "lat": -63.07840328595636,
        "lon": 61.05145627017708,
        "alt_km": 772.8075406287207,
        "timestamp": "2025-12-10T09:57:45.082951+00:00",
        "meta_object_name": "IRIDIUM 33 DEB",
        "meta_object_id": "1997-051BF",
        "meta_epoch": "2025-12-10T03:51:30.515040",
        "meta_mean_motion": 14.36046981,
        "meta_eccentricity": 0.0012165,
        "meta_inclination": 86.3829,
        "meta_ra_of_asc_node": 68.3142,
        "meta_arg_of_pericenter": 251.7113,
        "meta_mean_anomaly": 170.9201,
        "meta_ephemeris_type": 0,
        "meta_classification_type": "U",
        "meta_norad_cat_id": 33886,
        "meta_element_set_no": 999,
        "meta_rev_at_epoch": 88015,
        "meta_bstar": 0.00030983,
        "meta_mean_motion_dot": 9.2e-06,
        "meta_mean_motion_ddot": 0,
        "tle_line1": "1 33886U 97051BF  25344.16076985  .00000920  00000+0  30983-3 0  9996",
        "tle_line2": "2 33886  86.3829  68.3142 0012165 251.7113 170.9201 14.36046981880159"
      },
      "geometry": {
        "type": "Point",
        "coordinates": [
          61.05145627017708,
          -63.07840328595636
        ]
      }
    },
    {
      "type": "Feature",
      "properties": {
        "norad_id": 33887,
        "name": "IRIDIUM 33 DEB",
        "group": "iridium-33-debris",
        "lat": -43.101675967065475,
        "lon": -172.1383011794106,
        "alt_km": 771.502679776052,
        "timestamp": "2025-12-10T09:57:45.082962+00:00",
        "meta_object_name": "IRIDIUM 33 DEB",
        "meta_object_id": "1997-051BG",
        "meta_epoch": "2025-12-10T02:30:54.279360",
        "meta_mean_motion": 14.37217251,
        "meta_eccentricity": 0.0004238,
        "meta_inclination": 86.3046,
        "meta_ra_of_asc_node": 4.5279,
        "meta_arg_of_pericenter": 238.4747,
        "meta_mean_anomaly": 180.1342,
        "meta_ephemeris_type": 0,
        "meta_classification_type": "U",
        "meta_norad_cat_id": 33887,
        "meta_element_set_no": 999,
        "meta_rev_at_epoch": 88127,
        "meta_bstar": 0.00021226,
        "meta_mean_motion_dot": 6.51e-06,
        "meta_mean_motion_ddot": 0,
        "tle_line1": "1 33887U 97051BG  25344.10479490  .00000651  00000+0  21226-3 0  9990",
        "tle_line2": "2 33887  86.3046   4.5279 0004238 238.4747 180.1342 14.37217251881275"
      },
      "geometry": {
        "type": "Point",
        "coordinates": [
          -172.1383011794106,
          -43.101675967065475
        ]
      }
    },
    {
      "type": "Feature",
      "properties": {
        "norad_id": 33953,
        "name": "IRIDIUM 33 DEB",
        "group": "iridium-33-debris",
        "lat": -72.1727158967601,
        "lon": 43.44771291497987,
        "alt_km": 728.9052852688201,
        "timestamp": "2025-12-10T09:57:45.082973+00:00",
        "meta_object_name": "IRIDIUM 33 DEB",
        "meta_object_id": "1997-051BN",
        "meta_epoch": "2025-12-09T23:18:17.054208",
        "meta_mean_motion": 14.5527898,
        "meta_eccentricity": 0.0018458,
        "meta_inclination": 86.384,
        "meta_ra_of_asc_node": 54.9808,
        "meta_arg_of_pericenter": 111.2598,
        "meta_mean_anomaly": 11.2257,
        "meta_ephemeris_type": 0,
        "meta_classification_type": "U",
        "meta_norad_cat_id": 33953,
        "meta_element_set_no": 999,
        "meta_rev_at_epoch": 88263,
        "meta_bstar": 0.0016887,
        "meta_mean_motion_dot": 7.353e-05,
        "meta_mean_motion_ddot": 0,
        "tle_line1": "1 33953U 97051BN  25343.97103072  .00007353  00000+0  16887-2 0  9990",
        "tle_line2": "2 33953  86.3840  54.9808 0018458 111.2598  11.2257 14.55278980882635"
      },
      "geometry": {
        "type": "Point",
        "coordinates": [
          43.44771291497987,
          -72.1727158967601
        ]
      }
    },
    {
      "type": "Feature",
      "properties": {
        "norad_id": 33960,
        "name": "IRIDIUM 33 DEB",
        "group": "iridium-33-debris",
        "lat": -22.9295921957886,
        "lon": 112.19875448450787,
        "alt_km": 623.0265275665715,
        "timestamp": "2025-12-10T09:57:45.082983+00:00",
        "meta_object_name": "IRIDIUM 33 DEB",
        "meta_object_id": "1997-051BV",
        "meta_epoch": "2025-12-09T20:12:56.328768",
        "meta_mean_motion": 14.84936336,
        "meta_eccentricity": 0.0007341,
        "meta_inclination": 86.2533,
        "meta_ra_of_asc_node": 290.8802,
        "meta_arg_of_pericenter": 66.8511,
        "meta_mean_anomaly": 315.9506,
        "meta_ephemeris_type": 0,
        "meta_classification_type": "U",
        "meta_norad_cat_id": 33960,
        "meta_element_set_no": 999,
        "meta_rev_at_epoch": 88824,
        "meta_bstar": 0.0044424,
        "meta_mean_motion_dot": 0.00038025,
        "meta_mean_motion_ddot": 0,
        "tle_line1": "1 33960U 97051BV  25343.84231862  .00038025  00000+0  44424-2 0  9991",
        "tle_line2": "2 33960  86.2533 290.8802 0007341  66.8511 315.9506 14.84936336888247"
      },
      "geometry": {
        "type": "Point",
        "coordinates": [
          112.19875448450787,
          -22.9295921957886
        ]
      }
    },
    {
      "type": "Feature",
      "properties": {
        "norad_id": 33966,
        "name": "IRIDIUM 33 DEB",
        "group": "iridium-33-debris",
        "lat": 78.16751574890797,
        "lon": -150.50165499024885,
        "alt_km": 720.2258025291849,
        "timestamp": "2025-12-10T09:57:45.082994+00:00",
        "meta_object_name": "IRIDIUM 33 DEB",
        "meta_object_id": "1997-051CB",
        "meta_epoch": "2025-12-10T04:46:33.396096",
        "meta_mean_motion": 14.49577147,
        "meta_eccentricity": 0.0007113,
        "meta_inclination": 86.3923,
        "meta_ra_of_asc_node": 47.1175,
        "meta_arg_of_pericenter": 196.7181,
        "meta_mean_anomaly": 217.5881,
        "meta_ephemeris_type": 0,
        "meta_classification_type": "U",
        "meta_norad_cat_id": 33966,
        "meta_element_set_no": 999,
        "meta_rev_at_epoch": 88405,
        "meta_bstar": 0.00077782,
        "meta_mean_motion_dot": 3.004e-05,
        "meta_mean_motion_ddot": 0,
        "tle_line1": "1 33966U 97051CB  25344.19899764  .00003004  00000+0  77782-3 0  9990",
        "tle_line2": "2 33966  86.3923  47.1175 0007113 196.7181 217.5881 14.49577147884056"
      },
      "geometry": {
        "type": "Point",
        "coordinates": [
          -150.50165499024885,
          78.16751574890797
        ]
      }
    },
    {
      "type": "Feature",
      "properties": {
        "norad_id": 34071,
        "name": "IRIDIUM 33 DEB",
        "group": "iridium-33-debris",
        "lat": 10.966086907787517,
        "lon": -161.87084429838828,
        "alt_km": 724.9973165361625,
        "timestamp": "2025-12-10T09:57:45.083004+00:00",
        "meta_object_name": "IRIDIUM 33 DEB",
        "meta_object_id": "1997-051CE",
        "meta_epoch": "2025-12-10T04:12:57.800736",
        "meta_mean_motion": 14.49446017,
        "meta_eccentricity": 0.0009847,
        "meta_inclination": 86.3457,
        "meta_ra_of_asc_node": 18.9427,
        "meta_arg_of_pericenter": 114.4386,
        "meta_mean_anomaly": 245.7847,
        "meta_ephemeris_type": 0,
        "meta_classification_type": "U",
        "meta_norad_cat_id": 34071,
        "meta_element_set_no": 999,
        "meta_rev_at_epoch": 88297,
        "meta_bstar": 0.00080363,
        "meta_mean_motion_dot": 3.096e-05,
        "meta_mean_motion_ddot": 0,
        "tle_line1": "1 34071U 97051CE  25344.17566899  .00003096  00000+0  80363-3 0  9996",
        "tle_line2": "2 34071  86.3457  18.9427 0009847 114.4386 245.7847 14.49446017882977"
      },
      "geometry": {
        "type": "Point",
        "coordinates": [
          -161.87084429838828,
          10.966086907787517
        ]
      }
    },
    {
      "type": "Feature",
      "properties": {
        "norad_id": 34077,
        "name": "IRIDIUM 33 DEB",
        "group": "iridium-33-debris",
        "lat": -62.67190192592042,
        "lon": -120.44363937156761,
        "alt_km": 692.1563388808536,
        "timestamp": "2025-12-10T09:57:45.083015+00:00",
        "meta_object_name": "IRIDIUM 33 DEB",
        "meta_object_id": "1997-051CL",
        "meta_epoch": "2025-12-10T04:04:24.302208",
        "meta_mean_motion": 14.64778343,
        "meta_eccentricity": 0.0010473,
        "meta_inclination": 86.386,
        "meta_ra_of_asc_node": 52.6393,
        "meta_arg_of_pericenter": 47.6544,
        "meta_mean_anomaly": 342.1156,
        "meta_ephemeris_type": 0,
        "meta_classification_type": "U",
        "meta_norad_cat_id": 34077,
        "meta_element_set_no": 999,
        "meta_rev_at_epoch": 88295,
        "meta_bstar": 0.002184,
        "meta_mean_motion_dot": 0.00011681,
        "meta_mean_motion_ddot": 0,
        "tle_line1": "1 34077U 97051CL  25344.16972572  .00011681  00000+0  21840-2 0  9993",
        "tle_line2": "2 34077  86.3860  52.6393 0010473  47.6544 342.1156 14.64778343882958"
      },
      "geometry": {
        "type": "Point",
        "coordinates": [
          -120.44363937156761,
          -62.67190192592042
        ]
      }
    }
  ]
}